[
    {
        "CCSDS_OMM_VERS": "3.0",
        "COMMENT": "GENERATED VIA SPACE-TRACK.ORG API",
        "CREATION_DATE": "2025-04-12T22:09:39",
        "ORIGINATOR": "18 SPCS",
        "OBJECT_NAME": "NAVSTAR 77 (USA 289)",
        "OBJECT_ID": "2018-109A",
        "CENTER_NAME": "EARTH",
        "REF_FRAME": "TEME",
        "TIME_SYSTEM": "UTC",
        "MEAN_ELEMENT_THEORY": "SGP4",
        "EPOCH": "2025-04-12T11:58:59.984832",
        "MEAN_MOTION": "2.00567753",
        "ECCENTRICITY": "0.00331850",
        "INCLINATION": "55.4328",
        "RA_OF_ASC_NODE": "109.1942",
        "ARG_OF_PERICENTER": "197.8180",
        "MEAN_ANOMALY": "348.2907",
        "EPHEMERIS_TYPE": "0",
        "CLASSIFICATION_TYPE": "U",
        "NORAD_CAT_ID": "43873",
        "ELEMENT_SET_NO": "999",
        "REV_AT_EPOCH": "4643",
        "BSTAR": "0.00000000000000",
        "MEAN_MOTION_DOT": "0.00000046",
        "MEAN_MOTION_DDOT": "0.0000000000000",
        "SEMIMAJOR_AXIS": "26559.982",
        "PERIOD": "717.962",
        "APOAPSIS": "20269.986",
        "PERIAPSIS": "20093.707",
        "OBJECT_TYPE": "PAYLOAD",
        "RCS_SIZE": "LARGE",
        "COUNTRY_CODE": "US",
        "LAUNCH_DATE": "2018-12-23",
        "SITE": "AFETR",
        "DECAY_DATE": null,
        "FILE": "4699941",
        "GP_ID": "285447373",
        "TLE_LINE0": "0 NAVSTAR 77 (USA 289)",
        "TLE_LINE1": "1 43873U 18109A   25102.49930538  .00000046  00000-0  00000-0 0  9995",
        "TLE_LINE2": "2 43873  55.4328 109.1942 0033185 197.8180 348.2907  2.00567753 46439"
    }
]